NORAD_CAT_ID,OBJECT_NAME,OBJECT_TYPE,EPOCH,MEAN_MOTION,ECCENTRICITY,INCLINATION,RA_OF_ASC_NODE,ARG_OF_PERICENTER,MEAN_ANOMALY,BSTAR,MEAN_MOTION_DOT,MEAN_MOTION_DDOT,TLE_LINE0,TLE_LINE1,TLE_LINE2,SEMIMAJOR_AXIS,PERIOD,APOGEE,PERIGEE,DECAYED
56485.0,STARLINK-6210,PAYLOAD,2024-02-02 14:50:27,14.98334349,0.0002556,69.9982,255.8151,268.6133,91.4733,7.4383e-05,7.95e-06,0.0,0 STARLINK-6210,1 56485U 23064AP  24033.61837550  .00000795  00000-0  74383-4 0  9990,2 56485  69.9982 255.8151 0002556 268.6133  91.4733 14.98334349 40994,6950.179,96.107,573.821,570.268,0.0
56485.0,STARLINK-6210,PAYLOAD,2024-02-02 19:38:51,14.98343411,0.000277,69.9981,255.3091,269.4116,90.6725,-3.4744e-05,-5.08e-06,0.0,0 STARLINK-6210,1 56485U 23064AP  24033.81865641 -.00000508  00000-0 -34744-4 0  9995,2 56485  69.9981 255.3091 0002770 269.4116  90.6725 14.98343411 41385,6950.151,96.106,573.942,570.091,0.0
56485.0,STARLINK-6210,PAYLOAD,2024-02-02 21:14:59,14.98342572,0.0002788,69.9979,255.1403,269.4545,90.6295,-4.2512e-05,-6e-06,0.0,0 STARLINK-6210,1 56485U 23064AP  24033.88541650 -.00000600  00000-0 -42512-4 0  9998,2 56485  69.9979 255.1403 0002788 269.4545  90.6295 14.98342572 41033,6950.154,96.106,573.957,570.081,0.0
56485.0,STARLINK-6210,PAYLOAD,2024-02-03 00:27:15,14.98344378,0.0002753,69.9982,254.8043,269.2026,90.8818,-2.2173e-05,-3.58e-06,0.0,0 STARLINK-6210,1 56485U 23064AP  24034.01893356 -.00000358  00000-0 -22173-4 0  9998,2 56485  69.9982 254.8043 0002753 269.2026  90.8818 14.98344378 41058,6950.148,96.106,573.927,570.1,0.0
56485.0,STARLINK-6210,PAYLOAD,2024-02-03 19:40:52,14.98334684,0.0002636,69.9984,252.7845,269.0444,91.0413,-6.9169e-05,-9.18e-06,0.0,0 STARLINK-6210,1 56485U 23064AP  24034.82005561 -.00000918  00000-0 -69169-4 0  9998,2 56485  69.9984 252.7845 0002636 269.0444  91.0413 14.98334684 41535,6950.178,96.107,573.875,570.211,0.0
56485.0,STARLINK-6210,PAYLOAD,2024-02-03 21:17:00,14.98334574,0.0002637,69.9984,252.6162,269.0763,91.0094,-6.9114e-05,-9.18e-06,0.0,0 STARLINK-6210,1 56485U 23064AP  24034.88681542 -.00000918  00000-0 -69114-4 0  9993,2 56485  69.9984 252.6162 0002637 269.0763  91.0094 14.98334574 41185,6950.179,96.107,573.877,570.211,0.0
56485.0,STARLINK-6210,PAYLOAD,2024-02-04 14:54:28,14.98341246,0.000273,69.9981,250.7656,267.1573,92.9273,8.6917e-06,1.1e-07,0.0,0 STARLINK-6210,1 56485U 23064AP  24035.62116509  .00000011  00000-0  86917-5 0  9995,2 56485  69.9981 250.7656 0002730 267.1573  92.9273 14.98341246 41296,6950.158,96.106,573.921,570.126,0.0
56485.0,STARLINK-6210,PAYLOAD,2024-02-04 19:42:52,14.98342508,0.0002704,69.9983,250.2601,268.2578,91.8271,2.6811e-05,2.27e-06,0.0,0 STARLINK-6210,1 56485U 23064AP  24035.82144234  .00000227  00000-0  26811-4 0  9998,2 56485  69.9983 250.2601 0002704 268.2578  91.8271 14.98342508 41682,6950.154,96.106,573.899,570.14,0.0
56485.0,STARLINK-6210,PAYLOAD,2024-02-04 21:19:00,14.98344256,0.0002668,69.9983,250.0916,267.8192,92.2661,5.0072e-05,5.05e-06,0.0,0 STARLINK-6210,1 56485U 23064AP  24035.88819999  .00000505  00000-0  50072-4 0  9996,2 56485  69.9983 250.0916 0002668 267.8192  92.2661 14.98344256 41337,6950.149,96.106,573.868,570.16,0.0
56485.0,STARLINK-6210,PAYLOAD,2024-02-05 14:56:30,14.9832485,0.0002293,69.9992,248.2402,266.8805,93.2092,-1.3996e-05,-2.6e-06,0.0,0 STARLINK-6210,1 56485U 23064AP  24036.62257066 -.00000260  00000-0 -13996-4 0  9994,2 56485  69.9992 248.2402 0002293 266.8805  93.2092 14.98324850 41449,6950.209,96.107,573.667,570.48,0.0
56485.0,STARLINK-6210,PAYLOAD,2024-02-05 18:08:46,14.98324246,0.0002328,69.9991,247.9037,265.6382,94.4511,-2.5133e-05,-3.93e-06,0.0,0 STARLINK-6210,1 56485U 23064AP  24036.75609149 -.00000393  00000-0 -25133-4 0  9994,2 56485  69.9991 247.9037 0002328 265.6382  94.4511 14.98324246 41824,6950.211,96.107,573.694,570.458,0.0
56485.0,STARLINK-6210,PAYLOAD,2024-02-05 21:21:02,14.98321549,0.0002401,69.999,247.567,266.1185,93.97,-6.0152e-05,-8.1e-06,0.0,0 STARLINK-6210,1 56485U 23064AP  24036.88961456 -.00000810  00000-0 -60152-4 0  9994,2 56485  69.9990 247.5670 0002401 266.1185  93.9700 14.98321549 41480,6950.219,96.108,573.753,570.415,0.0
56485.0,STARLINK-6210,PAYLOAD,2024-02-06 13:22:22,14.98334891,0.0002427,69.9988,245.8835,265.9347,94.1535,-0.00010087,-1.296e-05,0.0,0 STARLINK-6210,1 56485U 23064AP  24037.55720841 -.00001296  00000-0 -10087-3 0  9990,2 56485  69.9988 245.8835 0002427 265.9347  94.1535 14.98334891 41580,6950.178,96.107,573.73,570.356,0.0
56485.0,STARLINK-6210,PAYLOAD,2024-02-06 19:46:54,14.98334609,0.0002487,69.9987,245.2106,261.3259,98.7619,-9.9658e-05,-1.282e-05,0.0,0 STARLINK-6210,1 56485U 23064AP  24037.82424735 -.00001282  00000-0 -99658-4 0  9990,2 56485  69.9987 245.2106 0002487 261.3259  98.7619 14.98334609 41986,6950.179,96.107,573.772,570.315,0.0
56485.0,STARLINK-6210,PAYLOAD,2024-02-06 21:23:03,14.98333288,0.0002506,69.9987,245.0423,261.4288,98.6587,-0.0001124,-1.434e-05,0.0,0 STARLINK-6210,1 56485U 23064AP  24037.89100844 -.00001434  00000-0 -11240-3 0  9998,2 56485  69.9987 245.0423 0002506 261.4288  98.6587 14.98333288 41638,6950.183,96.107,573.789,570.306,0.0
56485.0,STARLINK-6210,PAYLOAD,2024-02-07 15:00:32,14.98322392,0.000268,69.9982,243.1901,264.5864,95.4989,5.4549e-05,5.58e-06,0.0,0 STARLINK-6210,1 56485U 23064AP  24038.62537079  .00000558  00000-0  54549-4 0  9998,2 56485  69.9982 243.1901 0002680 264.5864  95.4989 14.98322392 41747,6950.216,96.107,573.944,570.219,0.0
56485.0,STARLINK-6210,PAYLOAD,2024-02-07 19:48:56,14.98323576,0.0002708,69.9983,242.6849,267.5202,92.5647,5.015e-05,5.05e-06,0.0,0 STARLINK-6210,1 56485U 23064AP  24038.82565114  .00000505  00000-0  50150-4 0  9997,2 56485  69.9983 242.6849 0002708 267.5202  92.5647 14.98323576 42131,6950.213,96.107,573.96,570.196,0.0
56485.0,STARLINK-6210,PAYLOAD,2024-02-07 21:25:04,14.98323853,0.0002701,69.9983,242.5166,267.646,92.4389,5.2584e-05,5.34e-06,0.0,0 STARLINK-6210,1 56485U 23064AP  24038.89241114  .00000534  00000-0  52584-4 0  9990,2 56485  69.9983 242.5166 0002701 267.6460  92.4389 14.98323853 41782,6950.212,96.107,573.954,570.2,0.0
56485.0,STARLINK-6210,PAYLOAD,2024-02-08 15:02:32,14.98329767,0.0002743,69.9982,240.6649,268.4232,91.6613,1.1906e-05,4.9e-07,0.0,0 STARLINK-6210,1 56485U 23064AP  24039.62677011  .00000049  00000-0  11906-4 0  9995,2 56485  69.9982 240.6649 0002743 268.4232  91.6613 14.98329767 41891,6950.194,96.107,573.965,570.152,0.0
56485.0,STARLINK-6210,PAYLOAD,2024-02-08 19:50:57,14.98330195,0.0002746,69.9983,240.1599,268.4613,91.6232,1.6493e-05,1.04e-06,0.0,0 STARLINK-6210,1 56485U 23064AP  24039.82704967  .00000104  00000-0  16493-4 0  9996,2 56485  69.9983 240.1599 0002746 268.4613  91.6232 14.98330195 42285,6950.192,96.107,573.966,570.149,0.0
56485.0,STARLINK-6210,PAYLOAD,2024-02-08 21:27:05,14.98330066,0.0002744,69.9983,239.9915,268.3936,91.6909,1.4934e-05,8.5e-07,0.0,0 STARLINK-6210,1 56485U 23064AP  24039.89380978  .00000085  00000-0  14934-4 0  9991,2 56485  69.9983 239.9915 0002744 268.3936  91.6909 14.98330066 41937,6950.193,96.107,573.965,570.151,0.0
56485.0,STARLINK-6210,PAYLOAD,2024-02-09 13:28:25,14.98331782,0.0002731,69.9985,238.308,268.0879,91.9968,4.06e-05,3.91e-06,0.0,0 STARLINK-6210,1 56485U 23064AP  24040.56140753  .00000391  00000-0  40600-4 0  9991,2 56485  69.9985 238.3080 0002731 268.0879  91.9968 14.98331782 42030,6950.187,96.107,573.95,570.154,0.0
56485.0,STARLINK-6210,PAYLOAD,2024-02-09 19:52:57,14.98332236,0.0002729,69.9987,237.6346,267.9292,92.1555,4.2297e-05,4.12e-06,0.0,0 STARLINK-6210,1 56485U 23064AP  24040.82844674  .00000412  00000-0  42297-4 0  9991,2 56485  69.9987 237.6346 0002729 267.9292  92.1555 14.98332236 42437,6950.186,96.107,573.948,570.154,0.0
56485.0,STARLINK-6210,PAYLOAD,2024-02-10 13:30:26,14.98329903,0.0002635,69.999,235.7832,268.788,91.2977,-1.9888e-05,-3.3e-06,0.0,0 STARLINK-6210,1 56485U 23064AP  24041.56280927 -.00000330  00000-0 -19888-4 0  9999,2 56485  69.9990 235.7832 0002635 268.7880  91.2977 14.98329903 42185,6950.193,96.107,573.89,570.227,0.0
56485.0,STARLINK-6210,PAYLOAD,2024-02-10 19:54:59,14.98328104,0.0002642,69.999,235.1103,265.9243,94.1614,-3.4926e-05,-5.1e-06,0.0,0 STARLINK-6210,1 56485U 23064AP  24041.82985061 -.00000510  00000-0 -34926-4 0  9999,2 56485  69.9990 235.1103 0002642 265.9243  94.1614 14.98328104 42586,6950.199,96.107,573.9,570.228,0.0
56485.0,STARLINK-6210,PAYLOAD,2024-02-10 21:31:07,14.98328119,0.0002644,69.999,234.9419,266.3242,93.7614,-3.446e-05,-5.04e-06,0.0,0 STARLINK-6210,1 56485U 23064AP  24041.89661064 -.00000504  00000-0 -34460-4 0  9996,2 56485  69.9990 234.9419 0002644 266.3242  93.7614 14.98328119 42232,6950.199,96.107,573.901,570.226,0.0
56485.0,STARLINK-6210,PAYLOAD,2024-02-11 13:32:27,14.98334726,0.0002747,69.9989,233.2587,271.0393,89.0451,-1.8824e-06,-1.15e-06,0.0,0 STARLINK-6210,1 56485U 23064AP  24042.56420490 -.00000115  00000-0 -18824-5 0  9992,2 56485  69.9989 233.2587 0002747 271.0393  89.0451 14.98334726 42331,6950.178,96.107,573.952,570.134,0.0
56485.0,STARLINK-6210,PAYLOAD,2024-02-11 19:56:59,14.98335204,0.0002745,69.9991,232.5854,272.254,87.8305,6.5058e-06,-1.5e-07,0.0,0 STARLINK-6210,1 56485U 23064AP  24042.83124359 -.00000015  00000-0  65058-5 0  9996,2 56485  69.9991 232.5854 0002745 272.2540  87.8305 14.98335204 42738,6950.177,96.107,573.95,570.134,0.0
56485.0,STARLINK-6210,PAYLOAD,2024-02-11 21:33:07,14.9833562,0.0002739,69.9991,232.4171,272.3997,87.6849,1.1501e-05,4.4e-07,0.0,0 STARLINK-6210,1 56485U 23064AP  24042.89800293  .00000044  00000-0  11501-4 0  9994,2 56485  69.9991 232.4171 0002739 272.3997  87.6849 14.98335620 42383,6950.176,96.107,573.944,570.137,0.0
56485.0,STARLINK-6210,PAYLOAD,2024-02-12 13:34:28,14.98327781,0.0002714,69.9991,230.7338,269.3548,90.73,1.5623e-05,9.3e-07,0.0,0 STARLINK-6210,1 56485U 23064AP  24043.56560653  .00000093  00000-0  15623-4 0  9995,2 56485  69.9991 230.7338 0002714 269.3548  90.7300 14.98327781 42487,6950.2,96.107,573.951,570.178,0.0
